#aP2002  6 23  0  0  0.00000000      96 ORBIT IGS00 HLM  IGS
## 1172      0.00000000   900.00000000 52448 0.0000000000000
+   28     1  2  3  4  5  6  7  8  9 10 11 13 14 15 17 18 20
+         21 22 23 24 25 26 27 28 29 30 31  0  0  0  0  0  0
+          0  0  0  0  0  0  0  0  0  0  0  0  0  0  0  0  0
+          0  0  0  0  0  0  0  0  0  0  0  0  0  0  0  0  0
+          0  0  0  0  0  0  0  0  0  0  0  0  0  0  0  0  0
++         4  4  3  3  3  4  3  3  3  3  4  4  4  4  4  4  4
++         4  4  4  3  3  4  3  4  4  3  3  0  0  0  0  0  0
++         0  0  0  0  0  0  0  0  0  0  0  0  0  0  0  0  0
++         0  0  0  0  0  0  0  0  0  0  0  0  0  0  0  0  0
++         0  0  0  0  0  0  0  0  0  0  0  0  0  0  0  0  0
%c cc cc ccc ccc cccc cccc cccc cccc ccccc ccccc ccccc ccccc
%c cc cc ccc ccc cccc cccc cccc cccc ccccc ccccc ccccc ccccc
%f  0.0000000  0.000000000  0.00000000000  0.000000000000000
%f  0.0000000  0.000000000  0.00000000000  0.000000000000000
%i    0    0    0    0      0      0      0      0         0
%i    0    0    0    0      0      0      0      0         0
/* FINAL ORBIT COMBINATION FROM WEIGHTED AVERAGE OF:        
/* cod emr esa gfz jpl ngs sio                              
/* REFERENCED TO GPS CLOCK AND TO WEIGHTED MEAN POLE:       
/* CLK ANT Z-OFFSET (M): II/IIA 1.023; IIR 0.000            
*  2002  6 23  5  0  0.00000000
P  1   -465.036729 -26205.477328   4360.670354    235.529469
P  2  12377.234935 -11181.630807  21304.890919   -219.812778
P  3  12523.968373 -16531.521185  16464.135536     39.336543
P  4 -24535.284885   3696.292421  -9786.777934    218.758852
P  5   5430.599909  18774.165897 -18115.029392     19.014113
P  6   7453.007231  22338.479383  12274.669000     -4.331924
P  7 -15033.294858  -5085.665304 -20951.438095    624.782590
P  8 -21094.442565  -2766.573643  15814.942232    629.876071
P  9  -6035.278428  18150.645128 -18565.254561    -48.776727
P 10 -12902.382126   8650.747431  21552.574945      6.998585
P 11   5530.772708 -18843.005285 -17860.040249     14.811127
P 13  -6764.097163 -22501.023351  12459.256233     -8.580050
P 14  14833.464283   2774.586963 -21814.674886    -64.865597
P 15  17796.512194   6385.755143  18448.569579     28.988424
P 17  13908.779561   9838.621462  20595.706681    200.923858
P 18  19580.736611  17736.460213   3364.766423    -61.164954
P 20  -6044.663602 -18921.766621 -17681.832332   -169.586712
P 21  23491.694650  11021.378193  -6587.441752     -1.747362
P 22  18733.593140  -4653.463958  18095.501000    373.249620
P 23   2434.522961  18315.557809  19628.885349      4.510866
P 24 -23064.258109  12681.759685   3869.068344     38.288354
P 25  24195.839717  -7925.939681  -7024.584501     28.451556
P 26  -7890.395468  23386.603889   8770.897646   -269.141374
P 27 -11712.773926 -11309.007333  21408.802237    -17.301636
P 28 -23363.560793 -11901.677966  -4855.709271    -86.114072
P 29  -8843.256522  22555.332738  11220.019515     40.627380
P 30  14729.358121  19203.381720 -11225.033417    679.312542
P 31   4372.128382 -25546.203555   4675.300255    316.951605
*  2002  6 23  5 15  0.00000000
P  1   -216.264076 -26507.943451   1511.055750    235.529937
P  2  14348.633155 -10045.104706  20564.445838   -219.817812
P  3  12752.289801 -14534.794195  18099.132237     39.340567
P  4 -23485.419018   2978.038490 -12255.506797    218.772294
P  5   3483.884076  17870.812539 -19448.937917     19.014965
P  6   7133.488877  23580.220227   9853.348031     -4.335350
P  7 -14952.254959  -7524.853147 -20296.090267    624.766167
P  8 -19412.807613  -3753.790430  17616.484755    629.862605
P  9  -7866.902646  18959.391043 -16935.482425    -48.778956
P 10 -14910.817486   7306.098441  20761.332343      6.999487
P 11   7326.896607 -19677.737408 -16239.794121     14.811777
P 13  -6527.083814 -23773.813153   9987.932755     -8.580864
P 14  14705.266370   5252.794658 -21436.551595    -64.863152
P 15  15788.224373   7365.799589  19828.435275     28.991164
P 17  11701.775070  10725.245717  21448.671250    201.006840
P 18  19002.251843  17612.581031   6148.714423    -61.163317
P 20  -4198.978593 -17914.108232 -19209.013346   -169.589236
P 21  23936.924572  11496.535426  -3810.456961     -1.747218
P 22  20440.663718  -3531.973267  16508.321240    373.284367
P 23    599.247856  17084.905926  20862.239223      4.508516
P 24 -23370.134746  12605.986952    993.649536     38.289771
P 25  23508.171785  -7141.600324  -9619.350004     28.451380
P 26  -8075.906782  22186.459681  11355.756524   -269.163425
P 27  -9648.330103 -12522.815060  21713.815113    -17.299801
P 28 -23577.560437 -12324.071683  -2054.409185    -86.114921
P 29  -8997.760765  21172.755850  13586.635260     40.654003
P 30  13412.688046  18696.997185 -13527.425928    679.312763
P 31   4693.125200 -24813.403039   7396.207043    316.962035
*  2002  6 23  5 30  0.00000000
P  1     16.015301 -26498.831536  -1364.578066    235.531456
P  2  16287.181130  -9044.270679  19487.591609   -219.824807
P  3  13086.415947 -12385.002921  19420.027472     39.344347
P  4 -22243.130053   2071.202417 -14515.602789    218.785853
P  5   1376.457431  17005.706451 -20451.214112     19.017162
P  6   6867.006168  24554.335738   7261.944996     -4.338162
P  7 -14984.677772  -9866.252586 -19281.398355    624.750043
P  8 -17618.813448  -4920.314709  19112.170499    629.849041
P  9  -9492.303957  19752.112965 -15015.964959    -48.781860
P 10 -16892.933205   6129.621301  19613.828271      7.000773
P 11   8920.472649 -20480.278971 -14339.597713     14.812175
P 13  -6355.166223 -24767.926197   7345.469865     -8.581648
P 14  14707.677882   7670.966684 -20687.943455    -64.860927
P 15  13710.795057   8516.754480  20860.666766     28.996858
P 17   9473.093718  11767.289166  21937.642764    201.090045
P 18  18155.642290  17356.965327   8827.646723    -61.161561
P 20  -2168.489163 -16931.003537 -20407.115470   -169.591535
P 21  24135.061890  11786.615882   -969.769591     -1.746555
P 22  22017.797992  -2580.288388  14635.433465    373.319083
P 23  -1402.154989  15898.822281  21752.768220      4.508983
P 24 -23393.561989  12389.153968  -1898.818041     38.291150
P 25  22624.558239  -6159.211842 -12045.227132     28.452029
P 26  -8326.964099  20712.178417  13737.028560   -269.185143
P 27  -7631.689832 -13850.059191  21657.495202    -17.298194
P 28 -23536.762290 -12578.656810    781.777741    -86.115888
P 29  -9236.272513  19548.669592  15723.545098     40.680909
P 30  11856.271350  18142.458801 -15600.446091    679.312412
P 31   5066.346877 -23793.317025   9986.200844    316.972489
*  2002  6 23  5 45  0.00000000
P  1    269.780444 -26177.665470  -4216.642379    235.533029
P  2  18149.786936  -8183.196199  18090.074652   -219.830216
P  3  13539.433685 -10125.172869  20404.138971     39.348010
P  4 -20849.078221    964.654088 -16528.143978    218.799415
P  5   -857.807862  16208.541877 -21104.465924     19.019616
P  6   6620.317323  25242.302202   4544.874674     -4.342365
P  7 -15115.200824 -12065.102882 -17926.439588    624.733328
P  8 -15758.355841  -6262.392158  20275.068323    629.835188
P  9 -10894.531651  20488.664229 -12838.216314    -48.783731
P 10 -18801.064030   5130.072460  18130.382175      7.000298
P 11  10297.574947 -21212.687091 -12192.205110     14.812677
P 13  -6212.740260 -25464.570136   4577.203141     -8.582436
P 14  14829.505623   9981.168429 -19581.620007    -64.858558
P 15  11613.068748   9828.930774  21526.393688     29.000733
P 17   7269.631913  12950.226932  22052.339604    201.172988
P 18  17036.793004  17008.233901  11355.725269    -61.159743
P 20     15.158065 -16007.477960 -21255.828776   -169.593869
P 21  24063.634524  11923.067863   1887.071302     -1.749525
P 22  23424.856931  -1791.352516  12510.744867    373.354068
P 23  -3537.265042  14791.667206  22286.163422      4.509030
P 24 -23153.547099  11997.409564  -4758.496555     38.294305
P 25  21582.379105  -4968.220168 -14259.060729     28.452028
P 26  -8674.332618  18995.037362  15872.369702   -269.206992
P 27  -5700.360275 -15264.486501  21239.068121    -17.296726
P 28 -23222.397418 -12697.288015   3604.727104    -86.116647
P 29  -9585.578887  17716.984224  17595.096795     40.708019
P 30  10076.270103  17577.662018 -17409.296854    679.312113
P 31   5522.944424 -22507.716372  12399.104607    316.983041
EOF
